#dP2024  2 29 18  0  0.00000000      96 __u+U IGS20 EXT  IAC
## 2303 410400.00000000   900.00000000 60369 0.7500000000000
+  118   C06C07C08C09C10C11C12C13C14C16C19C20C21C22C23C24C25
+        C26C27C28C29C30C32C33C34C35C36C37C38C39C40C41C42C43
+        C44C45C46E02E03E04E05E07E08E09E10E11E12E13E14E15E18
+        E19E21E24E25E26E27E30E31E33E34E36G01G02G03G04G05G06
+        G07G08G09G10G11G12G13G14G15G16G17G18G19G20G21G22G23
+        G24G25G26G27G28G29G30G31G32J02J03R01R02R03R04R05R07
+        R08R09R11R12R13R14R15R16R17R18R19R20R21R22R24R26  0
++        10  8 11 11  8  8  8  9  8  9  7  9  8  8  9  6  6
++         8  9  8  7  8  9  8  9  8  9 10 10 10  7  8  8 10
++         7  8  9  6  6  6  7  6  5  6  8  8  8  8  8  7  7
++         7  7  7  7  5  8  7  7  6  7  8  7  8  7  6  7  7
++         7  6  7  7  6  7  8  7  6  6  7  7  6  8  9  6  6
++         6  6  7  6  6  6  6  7  6  8  9  9  6  7  9  7  6
++         7  7  7  7  8  5  8  9 10  9  8  9  8  8  6  7  0
%c M  cc GPS ccc cccc cccc cccc cccc ccccc ccccc ccccc ccccc
%c cc cc ccc ccc cccc cccc cccc cccc ccccc ccccc ccccc ccccc
%f  0.0000000  0.000000000  0.00000000000  0.000000000000000
%f  0.0000000  0.000000000  0.00000000000  0.000000000000000
%i    0    0    0    0      0      0      0      0         0
%i    0    0    0    0      0      0      0      0         0
/* IAC                                ULTRA-RAPID PREDICTION
/* S/V CLOCKS ARE ALIGNED TO GNSS TIME                      
/* G:C1WC2W R:C1PC2P E:C1XC5X C:C2IC6I J:C1CC2S             
/* PCV:IGS20_2290 OL/AL:FES2004  NONE     YN ORB:CoN CLK:CoN
*  2024 03 01  0 45  0.00000000
PC06 -12161.436422  23550.701556  32784.985401    242.491743
PC07 -13879.717804  39869.353452  -2102.407628   -882.555809
PC08    913.503932  30854.797863 -28609.462858     -0.790761
PC09  -2715.651197  24508.470595  34629.203747   -558.538407
PC10  -8184.213746  40743.682644  -8348.827979     64.294083
PC11 -26785.999551   3567.285662   7042.874578    436.504544
PC12 -15969.571866  -9393.357491  20904.202409    758.366277
PC13   7536.613357  34847.842303 -22107.628608    421.488032
PC14 -16103.723091   2664.137018 -22624.040810    302.811787
PC16 -15624.701108  22476.225700  32250.661967   -369.413936
PC19  15524.815894 -13183.290742  19094.595171   -922.560958
PC20  14537.953393   6552.414194  22919.841733   -211.883780
PC21  -4578.381533 -24162.860070 -13143.342452   -961.519897
PC22   7658.889685 -26517.495602   4014.429120    -91.381148
PC23  -4787.428331  16658.523820  21866.002544   -778.246540
PC24 -23305.390757 -14198.936082   5874.284230    930.457016
PC25 -19490.990265   2583.506885  19796.781708    338.371397
PC26 -14095.342396 -21505.842045 -10906.449636   -256.324024
PC27   7269.463927  14370.597818 -22810.519500    278.274763
PC28 -11265.943949  17606.790771 -18482.685268    211.967061
PC29  25583.702299 -11070.485674   1368.137642    248.501517
PC30  22866.035979   2930.180129 -15753.005667    -31.695406
PC32   4745.301801  24197.010665  13102.198613   -575.448327
PC33 -15459.766040  13241.564325 -19089.481168   -953.092433
PC34 -23699.925214  -1801.143265  14588.889040    380.245281
PC35  10761.919235 -18082.126746  18336.507000    421.897875
PC36  19769.471452  -1764.921663 -19598.397599      2.702177
PC37  13247.155718  21820.992356  11247.595462   -940.214179
PC38  -6356.882240  26797.179619 -31828.137771    139.924249
PC39 -21844.281982  21677.055653  28780.778364     -7.364933
PC40 -20789.074899  36849.620286     25.129412    -58.726314
PC41  -7986.936969  26314.795770  -4731.990647   -898.192050
PC42 -14074.081771  -8302.238308 -22569.294712   -450.210736
PC43 -25838.227919  10494.087277   -488.715926     62.378306
PC44  -7628.404566 -14303.586050  22697.903669    399.618658
PC45   4571.568011 -16680.093835 -21913.945849    -73.124441
PC46  23382.776564  13599.666539  -6785.739815   -127.925873
PE02  17713.975941   2987.315878 -23534.089214    107.496237
PE03  23232.716884  -7167.045380  16876.355519    -97.177579
PE04 -20161.795233  21662.858897    659.327539   -339.016556
PE05  12689.502627  11266.720522  24259.166586   4724.788699
PE07   5724.821332 -23360.788167 -17239.537491   -106.433772
PE08  20516.884746 -21328.978934     63.362403   -231.753315
PE09  -5900.052741  23338.938105  17236.714996   -354.110482
PE10  -7606.387807  14450.789090 -24690.270653   -605.803986
PE11   4591.837452  16989.592382 -23810.735509   3212.090570
PE12 -17349.919688  10147.249044 -21720.632428   -928.246313
PE13  -3817.083624 -16835.893904  24048.230721    -20.358459
PE14 -24540.485720  17988.726373   4852.271245     53.613199
PE15  17870.368894  -9787.104649  21485.794463    -88.635267
PE18  21889.751721  -7368.168059 -11304.936690    383.769842
PE19 -22620.137174   5093.159078 -18387.822916   -519.057097
PE21 -15376.358536 -21854.060373  12731.157050   -581.593634
PE24   3583.847021  28692.774096   6245.246939   -625.991019
PE25  15230.431101  22132.614965 -12417.376178      1.536024
PE26 -23329.645138 -13771.445942  11924.999734    383.303911
PE27  -3933.425478 -28739.491743  -5937.683904   -287.293880
PE30   9928.480309 -18408.033463 -20970.904338    -48.375675
PE31  -9695.960079  18593.799691  20886.201373    -17.169643
PE33 -28832.183597  -3263.912092  -5837.407426      8.346616
PE34  28766.859922   2840.266530   6371.662892    -97.431597
PE36  22937.230277  13929.941794 -12504.129153   -192.912498
PG01  21692.706802  12219.734836 -10066.481010    171.723719
PG02  15571.417369  13570.059367 -16353.715032   -477.578863
PG03  12090.985035  22466.900549   7462.810480    224.519187
PG04   8047.124352  13168.515984  21618.490634    303.956396
PG05  -5568.701630 -25400.650698   4986.176867   -163.690437
PG06  18754.216584  -7273.320226  17468.828191    386.984256
PG07  26169.612774   5828.735179   -198.010336    -73.759203
PG08    964.427125  18915.830415 -18540.916475     21.062734
PG09  17985.566062    324.745450  19479.704224    109.036390
PG10 -12848.450998   7557.495940 -21747.196546      1.029819
PG11   6910.304386 -13653.565758  21729.479653   -592.319697
PG12 -10270.958896 -23535.818060   6629.171353   -482.843154
PG13   9500.552192 -20302.326931 -14273.222723    630.089090
PG14  15161.415221  -3404.235594 -21520.300580    338.807506
PG15  -3458.915121 -19159.245414 -18469.512169    132.902440
PG16  -1493.382120  24390.061092   9489.949689   -351.530235
PG17  21752.570497 -11077.518381 -10229.429747    715.307766
PG18 -26108.994877  -4959.945501  -2119.539063   -566.274148
PG19  20726.089049 -16174.698128  -2110.051435    447.639369
PG20   2369.868414 -20890.275165  16388.164853    385.625666
PG21  10878.210208  14841.113831 -19024.172021    133.093141
PG22  11713.486341 -12279.222980 -20080.302819     23.143279
PG23 -16357.126390  -6065.903049 -20061.058460    167.004460
PG24 -13269.627464 -15106.723412 -17963.155773   -439.618246
PG25 -15939.961784 -15377.694062  14511.993079    490.055055
PG26  -7655.101784  17440.493685  18213.518052    184.759454
PG27 -10439.361146  22016.712849 -10303.645757     -8.245026
PG28 -20727.580952   6763.035426  15144.652095   -148.238931
PG29 -16738.986356  -3366.165670  20320.409262   -605.892162
PG30  24276.549452  -2480.311279 -10674.507088   -425.943614
PG31 -12604.756869  11584.179649  20196.037925   -227.902931
PG32 -20628.837827  14376.814656  -8019.199510   -614.048563
PJ02 -27640.740062  24370.071333  25585.912622     -2.454027
PJ03 -32714.022333  16714.450559 -16072.559242     -0.225074
PR01 -12432.443650  19071.863506 -11512.281792     78.471649
PR02  -6365.175483  23946.971325   5963.613983    -22.537475
PR03   4112.943008  15492.250862  19874.189986     95.489657
PR04  11726.002069  -1166.775723  22659.150689    225.594634
PR05  13377.291249 -17211.537345  13283.731730    127.689209
PR07  -4489.754330 -14876.662234 -20198.651971     76.922665
PR08 -11849.316958   1458.914117 -22471.817664    -74.600639
PR09  -4952.822950 -18424.726697 -16873.959992    172.780561
PR11 -18121.321272 -11289.413682  13951.723833     32.711779
PR12  -9397.310927   5936.177762  22977.221578     37.289663
PR13   2971.442478  17278.931389  18505.295159    -44.860732
PR14  15855.250383  19944.465995   1418.930285     26.128926
PR15  17851.028877  10218.534843 -15076.832988     81.754802
PR16   9457.553401  -5618.950974 -23012.652276     23.652100
PR17  13460.486280   7312.631810 -20376.979729     65.232845
PR18  24320.438379     23.829430  -7772.703372    129.880522
PR19  23711.572124  -5967.362187   7276.196529   -267.700758
PR20   6936.101494 -10685.337464  22117.500980   -109.078380
PR21 -13623.883925  -7268.670858  20309.430518    -80.949205
PR22 -24597.061102   -340.761365   6740.637918    110.541788
PR24  -5764.616885  11395.454631 -22064.921833    -45.959744
PR26 -11566.221122    510.674060 -22706.292812   -195.911267
EOF
